FENGYUN 1C DEB          
1 33623U 99025DDG 17345.13056943  .00001743  00000-0  10771-2 0  9996
2 33623  98.1855 309.9714 0084574  85.2029 275.8792 14.04673046511879
